{"type": "FeatureCollection", "features": [ {"type": "Feature", "properties": {"norad_id": 30306, "name": "FENGYUN 1C DEB", "group": "fengyun-1c-debris", "lat": 57.084740372558706, "lon": -128.88144011099556, "alt_km": 864.6474469041059, "timestamp": "2025-12-22T16:55:17.738560+00:00", "meta": {"OBJECT_NAME": "FENGYUN 1C DEB", "OBJECT_ID": "1999-025ZT", "EPOCH": "2025-12-21T08:24:26.991360", "MEAN_MOTION": 14.28243189, "ECCENTRICITY": 0.01130333, "INCLINATION": 98.5861, "RA_OF_ASC_NODE": 36.2884, "ARG_OF_PERICENTER": 332.0713, "MEAN_ANOMALY": 27.443, "EPHEMERIS_TYPE": 0, "CLASSIFICATION_TYPE": "U", "NORAD_CAT_ID": 30306, "ELEMENT_SET_NO": 999, "REV_AT_EPOCH": 97804, "BSTAR": 0.00076128497, "MEAN_MOTION_DOT": 1.988e-05, "MEAN_MOTION_DDOT": 0}, "tle": {"line1": "1 30306U 99025ZT  25355.35031240  .00001988  00000+0  76128-3 0  9997", "line2": "2 30306  98.5861  36.2884 0113033 332.0713  27.4430 14.28243189978042"}}, "geometry": {"type": "Point", "coordinates": [-128.88144011099556, 57.084740372558706]}}, {"type": "Feature", "properties": {"norad_id": 30309, "name": "FENGYUN 1C DEB", "group": "fengyun-1c-debris", "lat": -42.528946329716774, "lon": -134.7282764269944, "alt_km": 886.3962380180874, "timestamp": "2025-12-22T16:55:17.738571+00:00", "meta": {"OBJECT_NAME": "FENGYUN 1C DEB", "OBJECT_ID": "1999-025ZW", "EPOCH": "2025-12-22T03:47:50.721216", "MEAN_MOTION": 13.93526696, "ECCENTRICITY": 0.00937421, "INCLINATION": 99.2247, "RA_OF_ASC_NODE": 53.299, "ARG_OF_PERICENTER": 166.3573, "MEAN_ANOMALY": 194.0153, "EPHEMERIS_TYPE": 0, "CLASSIFICATION_TYPE": "U", "NORAD_CAT_ID": 30309, "ELEMENT_SET_NO": 999, "REV_AT_EPOCH": 96164, "BSTAR": 0.00039278217, "MEAN_MOTION_DOT": 4.9e-06, "MEAN_MOTION_DDOT": 0}, "tle": {"line1": "1 30309U 99025ZW  25356.15822594  .00000490  00000+0  39278-3 0  9991", "line2": "2 30309  99.2247  53.2990 0093742 166.3573 194.0153 13.93526696961643"}}, "geometry": {"type": "Point", "coordinates": [-134.7282764269944, -42.528946329716774]}}, {"type": "Feature", "properties": {"norad_id": 30310, "name": "FENGYUN 1C DEB", "group": "fengyun-1c-debris", "lat": -45.496561290254554, "lon": 24.88470789317728, "alt_km": 703.1705153235034, "timestamp": "2025-12-22T16:55:17.738582+00:00", "meta": {"OBJECT_NAME": "FENGYUN 1C DEB", "OBJECT_ID": "1999-025ZX", "EPOCH": "2025-12-22T06:54:02.440800", "MEAN_MOTION": 14.08412386, "ECCENTRICITY": 0.02405027, "INCLINATION": 98.6639, "RA_OF_ASC_NODE": 15.5584, "ARG_OF_PERICENTER": 330.4024, "MEAN_ANOMALY": 28.3711, "EPHEMERIS_TYPE": 0, "CLASSIFICATION_TYPE": "U", "NORAD_CAT_ID": 30310, "ELEMENT_SET_NO": 999, "REV_AT_EPOCH": 96866, "BSTAR": 0.00059170905, "MEAN_MOTION_DOT": 1.277e-05, "MEAN_MOTION_DDOT": 0}, "tle": {"line1": "1 30310U 99025ZX  25356.28752825  .00001277  00000+0  59171-3 0  9994", "line2": "2 30310  98.6639  15.5584 0240502 330.4024  28.3711 14.08412386968661"}}, "geometry": {"type": "Point", "coordinates": [24.88470789317728, -45.496561290254554]}}, {"type": "Feature", "properties": {"norad_id": 30311, "name": "FENGYUN 1C DEB", "group": "fengyun-1c-debris", "lat": 38.51540008495124, "lon": -80.61419682010957, "alt_km": 862.2981285421793, "timestamp": "2025-12-22T16:55:17.738592+00:00", "meta": {"OBJECT_NAME": "FENGYUN 1C DEB", "OBJECT_ID": "1999-025ZY", "EPOCH": "2025-12-22T05:46:51.655296", "MEAN_MOTION": 13.77897245, "ECCENTRICITY": 0.01655916, "INCLINATION": 99.1392, "RA_OF_ASC_NODE": 91.5782, "ARG_OF_PERICENTER": 171.8787, "MEAN_ANOMALY": 188.5106, "EPHEMERIS_TYPE": 0, "CLASSIFICATION_TYPE": "U", "NORAD_CAT_ID": 30311, "ELEMENT_SET_NO": 999, "REV_AT_EPOCH": 95091, "BSTAR": 0.00036856884, "MEAN_MOTION_DOT": 3.67e-06, "MEAN_MOTION_DDOT": 0}, "tle": {"line1": "1 30311U 99025ZY  25356.24087564  .00000367  00000+0  36857-3 0  9997", "line2": "2 30311  99.1392  91.5782 0165591 171.8787 188.5106 13.77897245950917"}}, "geometry": {"type": "Point", "coordinates": [-80.61419682010957, 38.51540008495124]}}, {"type": "Feature", "properties": {"norad_id": 30312, "name": "FENGYUN 1C DEB", "group": "fengyun-1c-debris", "lat": 25.926471957828486, "lon": -99.2235501404736, "alt_km": 730.1536695425793, "timestamp": "2025-12-22T16:55:17.738602+00:00", "meta": {"OBJECT_NAME": "FENGYUN 1C DEB", "OBJECT_ID": "1999-025ZZ", "EPOCH": "2025-12-22T04:42:54.828288", "MEAN_MOTION": 14.45974529, "ECCENTRICITY": 0.00122785, "INCLINATION": 98.8652, "RA_OF_ASC_NODE": 75.8936, "ARG_OF_PERICENTER": 183.0522, "MEAN_ANOMALY": 204.6464, "EPHEMERIS_TYPE": 0, "CLASSIFICATION_TYPE": "U", "NORAD_CAT_ID": 30312, "ELEMENT_SET_NO": 999, "REV_AT_EPOCH": 98057, "BSTAR": 0.0025932411, "MEAN_MOTION_DOT": 9.205e-05, "MEAN_MOTION_DDOT": 0}, "tle": {"line1": "1 30312U 99025ZZ  25356.19646792  .00009205  00000+0  25932-2 0  9997", "line2": "2 30312  98.8652  75.8936 0012278 183.0522 204.6464 14.45974529980573"}}, "geometry": {"type": "Point", "coordinates": [-99.2235501404736, 25.926471957828486]}}, {"type": "Feature", "properties": {"norad_id": 30313, "name": "FENGYUN 1C DEB", "group": "fengyun-1c-debris", "lat": -45.39616761726933, "lon": -106.12166310465409, "alt_km": 806.3840223037623, "timestamp": "2025-12-22T16:55:17.738613+00:00", "meta": {"OBJECT_NAME": "FENGYUN 1C DEB", "OBJECT_ID": "1999-025AAA", "EPOCH": "2025-12-22T04:19:48.778752", "MEAN_MOTION": 14.25522407, "ECCENTRICITY": 0.00568042, "INCLINATION": 98.8751, "RA_OF_ASC_NODE": 82.4631, "ARG_OF_PERICENTER": 307.9357, "MEAN_ANOMALY": 107.8431, "EPHEMERIS_TYPE": 0, "CLASSIFICATION_TYPE": "U", "NORAD_CAT_ID": 30313, "ELEMENT_SET_NO": 999, "REV_AT_EPOCH": 97224, "BSTAR": 0.0017560542, "MEAN_MOTION_DOT": 4.178e-05, "MEAN_MOTION_DDOT": 0}, "tle": {"line1": "1 30313U 99025AAA 25356.18042568  .00004178  00000+0  17561-2 0  9991", "line2": "2 30313  98.8751  82.4631 0056804 307.9357 107.8431 14.25522407972241"}}, "geometry": {"type": "Point", "coordinates": [-106.12166310465409, -45.39616761726933]}}, {"type": "Feature", "properties": {"norad_id": 30314, "name": "FENGYUN 1C DEB", "group": "fengyun-1c-debris", "lat": 76.59109524900606, "lon": 44.98287592877188, "alt_km": 949.6311439924975, "timestamp": "2025-12-22T16:55:17.738623+00:00", "meta": {"OBJECT_NAME": "FENGYUN 1C DEB", "OBJECT_ID": "1999-025AAB", "EPOCH": "2025-12-19T07:54:02.351232", "MEAN_MOTION": 14.0121396, "ECCENTRICITY": 0.0143407, "INCLINATION": 98.3834, "RA_OF_ASC_NODE": 183.6699, "ARG_OF_PERICENTER": 339.1457, "MEAN_ANOMALY": 20.3896, "EPHEMERIS_TYPE": 0, "CLASSIFICATION_TYPE": "U", "NORAD_CAT_ID": 30314, "ELEMENT_SET_NO": 999, "REV_AT_EPOCH": 96201, "BSTAR": 0.00090289, "MEAN_MOTION_DOT": 1.445e-05, "MEAN_MOTION_DDOT": 0}, "tle": {"line1": "1 30314U 99025AAB 25353.32919388  .00001445  00000+0  90289-3 0  9991", "line2": "2 30314  98.3834 183.6699 0143407 339.1457  20.3896 14.01213960962014"}}, "geometry": {"type": "Point", "coordinates": [44.98287592877188, 76.59109524900606]}}, {"type": "Feature", "properties": {"norad_id": 30315, "name": "FENGYUN 1C DEB", "group": "fengyun-1c-debris", "lat": -4.155504537002688, "lon": -174.70846589926197, "alt_km": 852.9684977379802, "timestamp": "2025-12-22T16:55:17.738633+00:00", "meta": {"OBJECT_NAME": "FENGYUN 1C DEB", "OBJECT_ID": "1999-025AAC", "EPOCH": "2025-12-22T01:08:33.959328", "MEAN_MOTION": 14.19077525, "ECCENTRICITY": 0.00347428, "INCLINATION": 98.6014, "RA_OF_ASC_NODE": 5.2836, "ARG_OF_PERICENTER": 333.3088, "MEAN_ANOMALY": 94.1805, "EPHEMERIS_TYPE": 0, "CLASSIFICATION_TYPE": "U", "NORAD_CAT_ID": 30315, "ELEMENT_SET_NO": 999, "REV_AT_EPOCH": 97839, "BSTAR": 0.00030537784, "MEAN_MOTION_DOT": 5.99e-06, "MEAN_MOTION_DDOT": 0}, "tle": {"line1": "1 30315U 99025AAC 25356.04761527  .00000599  00000+0  30538-3 0  9994", "line2": "2 30315  98.6014   5.2836 0034742 333.3088  94.1805 14.19077525978398"}}, "geometry": {"type": "Point", "coordinates": [-174.70846589926197, -4.155504537002688]}}, {"type": "Feature", "properties": {"norad_id": 30316, "name": "FENGYUN 1C DEB", "group": "fengyun-1c-debris", "lat": 52.83376357975358, "lon": -68.9380773664644, "alt_km": 711.8604475523734, "timestamp": "2025-12-22T16:55:17.738646+00:00", "meta": {"OBJECT_NAME": "FENGYUN 1C DEB", "OBJECT_ID": "1999-025AAD", "EPOCH": "2025-12-22T04:48:08.968320", "MEAN_MOTION": 14.56218118, "ECCENTRICITY": 0.00352567, "INCLINATION": 98.648, "RA_OF_ASC_NODE": 98.9577, "ARG_OF_PERICENTER": 10.3122, "MEAN_ANOMALY": 349.879, "EPHEMERIS_TYPE": 0, "CLASSIFICATION_TYPE": "U", "NORAD_CAT_ID": 30316, "ELEMENT_SET_NO": 999, "REV_AT_EPOCH": 98474, "BSTAR": 0.0021804355, "MEAN_MOTION_DOT": 9.681e-05, "MEAN_MOTION_DDOT": 0}, "tle": {"line1": "1 30316U 99025AAD 25356.20010380  .00009681  00000+0  21804-2 0  9993", "line2": "2 30316  98.6480  98.9577 0035256  10.3122 349.8790 14.56218118984744"}}, "geometry": {"type": "Point", "coordinates": [-68.9380773664644, 52.83376357975358]}}, {"type": "Feature", "properties": {"norad_id": 30317, "name": "FENGYUN 1C DEB", "group": "fengyun-1c-debris", "lat": 75.16954780599009, "lon": -147.36440127750635, "alt_km": 877.0783548879763, "timestamp": "2025-12-22T16:55:17.738656+00:00", "meta": {"OBJECT_NAME": "FENGYUN 1C DEB", "OBJECT_ID": "1999-025AAE", "EPOCH": "2025-12-21T23:22:08.847264", "MEAN_MOTION": 14.06952891, "ECCENTRICITY": 0.0024144, "INCLINATION": 98.7865, "RA_OF_ASC_NODE": 356.184, "ARG_OF_PERICENTER": 249.656, "MEAN_ANOMALY": 110.2015, "EPHEMERIS_TYPE": 0, "CLASSIFICATION_TYPE": "U", "NORAD_CAT_ID": 30317, "ELEMENT_SET_NO": 999, "REV_AT_EPOCH": 97143, "BSTAR": 4.2179e-05, "MEAN_MOTION_DOT": 2.8e-07, "MEAN_MOTION_DDOT": 0}, "tle": {"line1": "1 30317U 99025AAE 25355.97371351  .00000028  00000+0  42179-4 0  9991", "line2": "2 30317  98.7865 356.1840 0024144 249.6560 110.2015 14.06952891971432"}}, "geometry": {"type": "Point", "coordinates": [-147.36440127750635, 75.16954780599009]}}]}